[{"OBJECT_NAME":"RANGE-A","OBJECT_ID":"2018-099R","EPOCH":"2026-03-09T16:56:29.908608","MEAN_MOTION":15.1245864,"ECCENTRICITY":0.00096737,"INCLINATION":97.4107,"RA_OF_ASC_NODE":114.1927,"ARG_OF_PERICENTER":340.4473,"MEAN_ANOMALY":19.6386,"EPHEMERIS_TYPE":0,"CLASSIFICATION_TYPE":"U","NORAD_CAT_ID":43773,"ELEMENT_SET_NO":999,"REV_AT_EPOCH":39745,"BSTAR":0.00032165687,"MEAN_MOTION_DOT":5.536e-5,"MEAN_MOTION_DDOT":0},{"OBJECT_NAME":"STARLINK-3820","OBJECT_ID":"2022-045AK","EPOCH":"2026-03-09T15:19:10.956000","MEAN_MOTION":15.08834235,"ECCENTRICITY":0.000123,"INCLINATION":53.2173,"RA_OF_ASC_NODE":189.2632,"ARG_OF_PERICENTER":77.393,"MEAN_ANOMALY":282.7199,"EPHEMERIS_TYPE":0,"CLASSIFICATION_TYPE":"U","NORAD_CAT_ID":52364,"ELEMENT_SET_NO":999,"REV_AT_EPOCH":21591,"BSTAR":-2.5602e-5,"MEAN_MOTION_DOT":-6.95e-6,"MEAN_MOTION_DDOT":0}]
